OBJECT_NAME,OBJECT_ID,EPOCH,MEAN_MOTION,ECCENTRICITY,INCLINATION,RA_OF_ASC_NODE,ARG_OF_PERICENTER,MEAN_ANOMALY,EPHEMERIS_TYPE,CLASSIFICATION_TYPE,NORAD_CAT_ID,ELEMENT_SET_NO,REV_AT_EPOCH,BSTAR,MEAN_MOTION_DOT,MEAN_MOTION_DDOT
STARLINK-37419,2026-114R,2026-06-08T04:00:05.000256,15.80871368,.0001192,53.1585,247.3290,105.2300,12.4473,0,U,69197,999,336,-.60066E-4,-.12536E-3,0
STARLINK-37321,2026-114S,2026-06-08T04:00:05.000256,15.80877603,.0001094,53.1587,247.3207,104.3782,17.5802,0,U,69198,999,336,-.81598E-4,-.16776E-3,0
STARLINK-37406,2026-114T,2026-06-08T04:00:05.000256,15.80914381,.0000826,53.1582,247.3116,91.7043,34.4909,0,U,69199,999,336,-.23568E-3,-.47048E-3,0
STARLINK-37761,2026-114U,2026-06-08T04:00:05.000256,15.80811914,.0001034,53.1583,247.3024,92.4340,38.0780,0,U,69200,999,336,.57692E-3,.11436E-2,0
STARLINK-37754,2026-114V,2026-06-08T04:00:05.000256,15.80864438,.0001028,53.1582,247.2914,71.5733,64.2935,0,U,69201,999,336,.20339E-4,.3316E-4,0
STARLINK-37649,2026-114W,2026-06-08T04:00:05.000256,15.80875633,.0000976,53.1582,247.2853,96.3249,42.7082,0,U,69202,999,336,-.85783E-4,-.17597E-3,0
STARLINK-37604,2026-114X,2026-06-08T04:00:05.000256,15.80869594,.0000792,53.1583,247.2765,91.0506,52.2571,0,U,69203,999,336,-.61185E-4,-.12754E-3,0
STARLINK-37669,2026-114Y,2026-06-08T04:00:05.000256,15.80866462,.0001039,53.1581,247.2673,90.0200,57.5633,0,U,69204,999,336,-.39213E-4,-.8428E-4,0
STARLINK-37691,2026-114Z,2026-06-08T04:00:05.000256,15.78030986,.0000703,53.1586,247.2473,100.1748,56.8009,0,U,69205,999,336,.10109E-3,.169E-3,0
STARLINK-37671,2026-114AA,2026-06-08T04:00:05.000256,15.80847148,.0000812,53.1582,247.2492,85.2025,70.9328,0,U,69206,999,336,.13545E-3,.26084E-3,0
STARLINK-37647,2026-114AB,2026-06-08T04:00:05.000256,15.80861786,.0000996,53.1582,247.2583,107.7692,44.0866,0,U,69207,999,336,.29214E-4,.5068E-4,0
STARLINK-37562,2026-114AC,2026-06-08T04:00:05.000256,15.80860472,.0000959,53.1581,247.2313,86.7970,77.8748,0,U,69208,999,336,.26539E-4,.4539E-4,0
STARLINK-37682,2026-114AD,2026-06-08T04:00:05.000256,15.80799292,.000105,53.1582,247.2225,97.9749,70.9848,0,U,69209,999,336,.74867E-3,.149134E-2,0
STARLINK-37402,2026-114AE,2026-06-08T04:00:05.000256,15.80867455,.0000767,53.1580,247.2137,94.4640,78.7518,0,U,69210,999,336,-.11938E-3,-.24187E-3,0
STARLINK-37613,2026-115A,2026-06-08T04:00:05.000256,15.72635643,.0001724,97.2837,176.1185,90.7207,154.0060,0,U,69211,999,324,-.22117E-1,-.2580735E-1,0
STARLINK-37713,2026-115B,2026-06-08T02:50:16.069056,15.80879677,.0000878,97.2833,176.0797,98.9454,261.1914,0,U,69212,999,325,.44423E-3,.8604E-3,0
STARLINK-37716,2026-115C,2026-06-08T02:51:21.466944,15.80907871,.0001313,97.2838,176.0788,101.1022,259.0394,0,U,69213,999,325,.98018E-3,.192617E-2,0
STARLINK-37620,2026-115D,2026-06-08T04:00:05.000256,15.68402225,.000157,97.2840,176.1099,92.0959,134.2611,0,U,69214,999,324,-.26382E-1,-.2577151E-1,0
STARLINK-37700,2026-115E,2026-06-08T04:00:05.000256,15.57884101,.0001533,97.2846,176.0636,60.4633,49.0122,0,U,69215,999,324,-.38312E-1,-.2485096E-1,0
STARLINK-37766,2026-115F,2026-06-08T02:47:01.284576,15.80893698,.000106,97.2833,176.0824,67.3136,292.8244,0,U,69216,999,325,.41357E-3,.8009E-3,0
STARLINK-37763,2026-115G,2026-06-08T02:46:06.825792,15.80890275,.0000262,97.2834,176.0833,92.8400,267.2898,0,U,69217,999,325,.97827E-3,.19208E-2,0
STARLINK-37724,2026-115H,2026-06-08T02:44:54.629088,15.80890365,.000092,97.2837,176.0846,58.2064,301.9293,0,U,69218,999,325,.83288E-3,.16296E-2,0
STARLINK-37758,2026-115J,2026-06-08T01:09:08.282592,15.80896711,.0000654,97.2835,176.0230,57.8138,302.3194,0,U,69219,999,324,.92981E-3,.182404E-2,0
STARLINK-37201,2026-115K,2026-06-08T02:42:04.087584,15.80905262,.0001139,97.2840,176.0877,122.3282,237.8097,0,U,69220,999,325,.98389E-3,.19334E-2,0
STARLINK-37728,2026-115L,2026-06-08T02:38:34.628064,15.80882624,.0000923,97.2840,176.0916,63.1941,296.9421,0,U,69221,999,325,.43527E-3,.84297E-3,0
STARLINK-37760,2026-115M,2026-06-08T02:42:31.538592,15.80883098,.0001088,97.2839,176.0876,92.9553,267.1840,0,U,69222,999,325,.53171E-3,.103233E-2,0
STARLINK-37759,2026-115N,2026-06-08T01:06:23.732928,15.80877746,.0002136,97.2837,176.0251,4.9324,355.1965,0,U,69223,999,324,.49143E-3,.95299E-3,0
STARLINK-37725,2026-115P,2026-06-07T16:00:18.152064,15.80912920,.0001652,97.2840,175.6222,72.0447,288.1001,0,U,69224,999,318,.13327E-2,.264185E-2,0
STARLINK-37770,2026-115Q,2026-06-08T01:08:05.068896,15.80868910,.0001534,97.2841,176.0233,27.1889,332.9460,0,U,69225,999,324,.48889E-3,.94756E-3,0
STARLINK-37736,2026-115R,2026-06-08T02:38:12.639264,15.80911188,.0000978,97.2840,176.0916,128.1373,231.9984,0,U,69226,999,325,.10097E-2,.198588E-2,0
