STARLINK-37419          
1 69197U 26114R   26159.16672454 -.00012536  00000+0 -60066-4 0  9994
2 69197  53.1585 247.3290 0001192 105.2300  12.4473 15.80871368  3362
STARLINK-37321          
1 69198U 26114S   26159.16672454 -.00016776  00000+0 -81598-4 0  9998
2 69198  53.1587 247.3207 0001094 104.3782  17.5802 15.80877603  3368
STARLINK-37406          
1 69199U 26114T   26159.16672454 -.00047048  00000+0 -23568-3 0  9997
2 69199  53.1582 247.3116 0000826  91.7043  34.4909 15.80914381  3365
STARLINK-37761          
1 69200U 26114U   26159.16672454  .00114360  00000+0  57692-3 0  9995
2 69200  53.1583 247.3024 0001034  92.4340  38.0780 15.80811914  3362
STARLINK-37754          
1 69201U 26114V   26159.16672454  .00003316  00000+0  20339-4 0  9993
2 69201  53.1582 247.2914 0001028  71.5733  64.2935 15.80864438  3368
STARLINK-37649          
1 69202U 26114W   26159.16672454 -.00017597  00000+0 -85783-4 0  9996
2 69202  53.1582 247.2853 0000976  96.3249  42.7082 15.80875633  3362
STARLINK-37604          
1 69203U 26114X   26159.16672454 -.00012754  00000+0 -61185-4 0  9997
2 69203  53.1583 247.2765 0000792  91.0506  52.2571 15.80869594  3368
STARLINK-37669          
1 69204U 26114Y   26159.16672454 -.00008428  00000+0 -39213-4 0  9998
2 69204  53.1581 247.2673 0001039  90.0200  57.5633 15.80866462  3368
STARLINK-37691          
1 69205U 26114Z   26159.16672454  .00016900  00000+0  10109-3 0  9993
2 69205  53.1586 247.2473 0000703 100.1748  56.8009 15.78030986  3369
STARLINK-37671          
1 69206U 26114AA  26159.16672454  .00026084  00000+0  13545-3 0  9995
2 69206  53.1582 247.2492 0000812  85.2025  70.9328 15.80847148  3369
STARLINK-37647          
1 69207U 26114AB  26159.16672454  .00005068  00000+0  29214-4 0  9996
2 69207  53.1582 247.2583 0000996 107.7692  44.0866 15.80861786  3367
STARLINK-37562          
1 69208U 26114AC  26159.16672454  .00004539  00000+0  26539-4 0  9996
2 69208  53.1581 247.2313 0000959  86.7970  77.8748 15.80860472  3366
STARLINK-37682          
1 69209U 26114AD  26159.16672454  .00149134  00000+0  74867-3 0  9994
2 69209  53.1582 247.2225 0001050  97.9749  70.9848 15.80799292  3367
STARLINK-37402          
1 69210U 26114AE  26159.16672454 -.00024187  00000+0 -11938-3 0  9998
2 69210  53.1580 247.2137 0000767  94.4640  78.7518 15.80867455  3362
STARLINK-37613          
1 69211U 26115A   26159.16672454 -.02580735  00000+0 -22117-1 0  9997
2 69211  97.2837 176.1185 0001724  90.7207 154.0060 15.72635643  3242
STARLINK-37713          
1 69212U 26115B   26159.11824154  .00086040  00000+0  44423-3 0  9991
2 69212  97.2833 176.0797 0000878  98.9454 261.1914 15.80879677  3255
STARLINK-37716          
1 69213U 26115C   26159.11899846  .00192617  00000+0  98018-3 0  9999
2 69213  97.2838 176.0788 0001313 101.1022 259.0394 15.80907871  3250
STARLINK-37620          
1 69214U 26115D   26159.16672454 -.02577151  00000+0 -26382-1 0  9996
2 69214  97.2840 176.1099 0001570  92.0959 134.2611 15.68402225  3246
STARLINK-37700          
1 69215U 26115E   26159.16672454 -.02485096  00000+0 -38312-1 0  9999
2 69215  97.2846 176.0636 0001533  60.4633  49.0122 15.57884101  3241
STARLINK-37766          
1 69216U 26115F   26159.11598709  .00080090  00000+0  41357-3 0  9991
2 69216  97.2833 176.0824 0001060  67.3136 292.8244 15.80893698  3257
STARLINK-37763          
1 69217U 26115G   26159.11535678  .00192080  00000+0  97827-3 0  9994
2 69217  97.2834 176.0833 0000262  92.8400 267.2898 15.80890275  3258
STARLINK-37724          
1 69218U 26115H   26159.11452117  .00162960  00000+0  83288-3 0  9991
2 69218  97.2837 176.0846 0000920  58.2064 301.9293 15.80890365  3254
STARLINK-37758          
1 69219U 26115J   26159.04801253  .00182404  00000+0  92981-3 0  9998
2 69219  97.2835 176.0230 0000654  57.8138 302.3194 15.80896711  3246
STARLINK-37201          
1 69220U 26115K   26159.11254731  .00193340  00000+0  98389-3 0  9990
2 69220  97.2840 176.0877 0001139 122.3282 237.8097 15.80905262  3255
STARLINK-37728          
1 69221U 26115L   26159.11012301  .00084297  00000+0  43527-3 0  9990
2 69221  97.2840 176.0916 0000923  63.1941 296.9421 15.80882624  3257
STARLINK-37760          
1 69222U 26115M   26159.11286503  .00103233  00000+0  53171-3 0  9996
2 69222  97.2839 176.0876 0001088  92.9553 267.1840 15.80883098  3254
STARLINK-37759          
1 69223U 26115N   26159.04610802  .00095299  00000+0  49143-3 0  9998
2 69223  97.2837 176.0251 0002136   4.9324 355.1965 15.80877746  3242
STARLINK-37725          
1 69224U 26115P   26158.66687676  .00264185  00000+0  13327-2 0  9995
2 69224  97.2840 175.6222 0001652  72.0447 288.1001 15.80912920  3187
STARLINK-37770          
1 69225U 26115Q   26159.04728089  .00094756  00000+0  48889-3 0  9990
2 69225  97.2841 176.0233 0001534  27.1889 332.9460 15.80868910  3249
STARLINK-37736          
1 69226U 26115R   26159.10986851  .00198588  00000+0  10097-2 0  9998
2 69226  97.2840 176.0916 0000978 128.1373 231.9984 15.80911188  3254
